
STARLINK-30480          
1 58069U 23158U   25062.81610765 -.00002740  00000+0 -95039-4 0  9990
2 58069  43.0027 179.0763 0001513 287.8726  72.1960 15.25873559 78526
STARLINK-30532          
1 58070U 23158V   25062.87054986  .00000995  00000+0  88678-4 0  9994
2 58070  43.0016 244.9890 0001273 276.0525  84.0172 15.02537339 77758
STARLINK-30513          
1 58071U 23158W   25062.34030417  .00062468  00000+0  11470-2 0  9997
2 58071  42.9996  57.4657 0006124 152.9940 207.1239 15.48381288 79883
STARLINK-30506          
1 58072U 23158X   25062.86389447  .00000641  00000+0  62548-4 0  9994
2 58072  43.0018 244.9398 0001248 273.7795  86.2905 15.02536340 77759
YUNHAI-1 04             
1 58073U 23159A   25062.88487132  .00000499  00000+0  19702-3 0  9992
2 58073  98.5442  91.3950 0002285  84.9028 275.2417 14.33279873 72455
STARLINK-30604          
1 58075U 23160A   25062.33959037  .00000860  00000+0  78693-4 0  9991
2 58075  43.0029 298.3819 0001236 269.9199  90.1502 15.02536497 77027
STARLINK-30500          
1 58076U 23160B   25062.08354831  .00000474  00000+0  50121-4 0  9992
2 58076  43.0026 299.0344 0000974 276.2874  83.7857 15.02538213 77024
STARLINK-30613          
1 58077U 23160C   25062.06701687  .00000902  00000+0  81826-4 0  9998
2 58077  43.0008 299.7753 0000930 274.6377  85.4359 15.02535760 77028
STARLINK-30597          
1 58078U 23160D   25062.34292259  .00004579  00000+0  35371-3 0  9997
2 58078  43.0007 298.3881 0001367 264.0989  95.9698 15.02547334 77068
STARLINK-30598          
1 58079U 23160E   25061.39890450 -.00001664  00000+0 -10811-3 0  9995
2 58079  43.0038 303.3598 0001424 269.7270  90.3409 15.02545351 76913
STARLINK-30603          
1 58080U 23160F   25061.92740173  .00001879  00000+0  15415-3 0  9993
2 58080  42.9983 300.4457 0001470 277.3099  82.7576 15.02532742 76997
STARLINK-30602          
1 58081U 23160G   25062.35944984  .00001572  00000+0  13141-3 0  9992
2 58081  43.0030 297.6549 0001228 265.1162  94.9540 15.02538375 77062
STARLINK-30610          
1 58082U 23160H   25062.05703265  .00001181  00000+0  10251-3 0  9990
2 58082  43.0040 299.6980 0001021 270.7208  89.3518 15.02518695 77010
STARLINK-30551          
1 58083U 23160J   25062.05369800  .00000859  00000+0  78632-4 0  9993
2 58083  43.0040 299.6712 0000693 276.2819  83.7945 15.02531964 77013
STARLINK-30586          
1 58084U 23160K   25062.38275701  .00000449  00000+0  48290-4 0  9998
2 58084  43.0043 297.8403 0000982 274.5903  85.4827 15.02536154 77069
STARLINK-30609          
1 58085U 23160L   25062.37942898 -.00001775  00000+0 -11642-3 0  9991
2 58085  43.0045 297.8151 0001089 283.0932  76.9788 15.02522841 77067
STARLINK-30583          
1 58086U 23160M   25062.37609544  .00001494  00000+0  12564-3 0  9990
2 58086  43.0042 297.7908 0001300 265.8102  94.2592 15.02540873 77068
STARLINK-30557          
1 58087U 23160N   25062.37498938  .00000341  00000+0  40331-4 0  9998
2 58087  43.0019 297.7800 0000932 265.7592  94.3144 15.02535727 77062
STARLINK-30591          
1 58088U 23160P   25062.36943724  .00001838  00000+0  15106-3 0  9999
2 58088  43.0040 297.7411 0001380 269.2785  90.7899 15.02541547 77060
STARLINK-30584          
1 58089U 23160Q   25062.36610692  .00000880  00000+0  80188-4 0  9994
2 58089  43.0028 297.7141 0001089 272.7291  87.3427 15.02537965 77062
STARLINK-30590          
1 58090U 23160R   25062.37276883  .00000980  00000+0  87611-4 0  9996
2 58090  43.0035 297.7637 0000923 272.1831  87.8905 15.02534380 77066
STARLINK-30608          
1 58091U 23160S   25062.36278354  .00000140  00000+0  25431-4 0  9991
2 58091  43.0033 297.6908 0001117 266.2123  93.8592 15.02533912 77068
STARLINK-30615          
1 58092U 23160T   25062.09242810  .00001780  00000+0  14682-3 0  9996
2 58092  43.0012 299.0983 0001380 269.3155  90.7529 15.02539317 77023
STARLINK-30578          
1 58093U 23160U   25062.33622058  .00004831  00000+0  37212-3 0  9994
2 58093  43.0025 298.3372 0001550 285.0454  75.0216 15.02569308 77020
STARLINK-30574          
1 58094U 23160V   25062.35612170  .00000750  00000+0  70550-4 0  9990
2 58094  43.0042 297.6376 0000980 277.7884  82.2847 15.02534211 77066
STARLINK-30570          
1 58095U 23160W   25062.08689151 -.00001096  00000+0 -66095-4 0  9999
2 58095  43.0033 299.0578 0001178 259.1955 100.8755 15.02510373 77024
STARLINK-30581          
1 58096U 23160X   25062.08033897  .00000343  00000+0  40447-4 0  9995
2 58096  43.0031 299.8558 0000702 271.3897  88.6865 15.02528357 77017
STARLINK-30594          
1 58097U 23161A   25062.77730357  .00001133  00000+0  50394-4 0  9998
2 58097  53.1616  88.3582 0001307  94.9953 265.1197 15.30192859 77634
STARLINK-30614          
1 58098U 23161B   25062.77413999  .00000387  00000+0  25205-4 0  9992
2 58098  53.1610  88.3392 0001168  95.8925 264.2209 15.30191795 77634
STARLINK-30607          
1 58099U 23161C   25062.45081323  .00002327  00000+0  90709-4 0  9997
2 58099  53.1604  79.8744 0001445  73.9794 286.1366 15.30187253 77713
STARLINK-30600          
1 58100U 23161D   25062.78363431  .00000772  00000+0  38189-4 0  9995
2 58100  53.1615  88.3881 0001302  92.5243 267.5907 15.30193335 77636
STARLINK-30605          
1 58101U 23161E   25062.76991827  .00001411  00000+0  59761-4 0  9990
2 58101  53.1605  88.3133 0001106  95.4549 264.6578 15.30194486 77639
STARLINK-30592          
1 58102U 23161F   25062.76675117  .00000944  00000+0  43996-4 0  9995
2 58102  53.1611  88.2927 0001288 100.8955 259.2190 15.30196740 77635
STARLINK-30589          
1 58103U 23161G   25062.48023935 -.00005408  00000+0 -17049-3 0  9991
2 58103  53.1596  89.8598 0001043  78.9337 281.1781 15.30223190 77581
STARLINK-30617          
1 58104U 23161H   25062.48341496  .00001018  00000+0  46504-4 0  9997
2 58104  53.1603  89.8799 0001367  79.3657 280.7498 15.30192678 77589
STARLINK-30616          
1 58105U 23161J   25062.37216396 -.00015705  00000+0 -45672-3 0  9990
2 58105  53.1604  82.8274 0001237  96.9572 263.1571 15.34258087 77677
STARLINK-30612          
1 58106U 23161K   25062.43766284  .00006910  00000+0  21646-3 0  9995
2 58106  53.1588  82.5354 0001363  85.4893 274.6266 15.34250614 77681
STARLINK-30421          
1 58107U 23161L   25062.42834119  .00001596  00000+0  58677-4 0  9998
2 58107  53.1612  82.4416 0001428  83.2323 276.8842 15.34214394 77683
STARLINK-30611          
1 58108U 23161M   25062.42799259  .00001410  00000+0  53141-4 0  9990
2 58108  53.1613  82.4197 0001502  85.6542 274.4632 15.34223102 77681
STARLINK-30606          
1 58109U 23161N   25062.78048541 -.00000095  00000+0  89272-5 0  9995
2 58109  53.1615  88.3748 0001538  86.4890 273.6287 15.30188177 77635
STARLINK-30596          
1 58110U 23161P   25062.49598938  .00002792  00000+0  10632-3 0  9992
2 58110  53.1599  89.4444 0001196  91.9660 268.1477 15.30211729 77594
STARLINK-30595          
1 58111U 23161Q   25062.79313768  .00001019  00000+0  46549-4 0  9990
2 58111  53.1602  88.4565 0001386  92.9571 267.1589 15.30193244 77635
STARLINK-30593          
1 58112U 23161R   25062.78996808  .00000462  00000+0  27733-4 0  9997
2 58112  53.1603  88.4326 0001309  89.9442 270.1709 15.30191202 77630
STARLINK-30353          
1 58113U 23161S   25062.79946417  .00000770  00000+0  38147-4 0  9993
2 58113  53.1603  88.4954 0001412  77.0685 283.0473 15.30192969 77632
STARLINK-30572          
1 58114U 23161T   25062.78680100  .00001072  00000+0  48342-4 0  9991
2 58114  53.1609  88.4119 0001461  91.8838 268.2330 15.30190461 77632
STARLINK-30580          
1 58115U 23161U   25062.76041545  .00000497  00000+0  28902-4 0  9994
2 58115  53.1604  88.2324 0001261  92.3922 267.7223 15.30197891 77631
STARLINK-30493          
1 58116U 23161V   25062.79630186  .00000760  00000+0  37811-4 0  9995
2 58116  53.1609  88.4737 0001513  98.0410 262.0762 15.30190371 77634
STARLINK-30601          
1 58117U 23161W   25062.80264096  .00002534  00000+0  97696-4 0  9999
2 58117  53.1587  88.5104 0001767  87.1020 273.0183 15.30186543 77631
STARLINK-30795          
1 58118U 23162A   25062.83845962  .00004182  00000+0  32446-3 0  9993
2 58118  43.0038 348.2576 0001741 272.7826  87.2817 15.02540553 76517
STARLINK-30765          
1 58119U 23162B   25062.85622019  .00000228  00000+0  31951-4 0  9990
2 58119  43.0034 348.3723 0001348 265.5951  94.4738 15.02528798 76510
STARLINK-30768          
1 58120U 23162C   25062.50273348  .00000649  00000+0  63132-4 0  9994
2 58120  43.0033 350.0366 0000949 269.7867  90.2867 15.02537206 76467
STARLINK-30799          
1 58121U 23162D   25062.85510288  .00001168  00000+0  10153-3 0  9991
2 58121  43.0038 348.3625 0001167 270.9461  89.1248 15.02535762 76519
STARLINK-30759          
1 58122U 23162E   25062.50051231 -.00000820  00000+0 -45664-4 0  9994
2 58122  43.0063 350.0172 0000820 266.3214  93.7534 15.02534192 76475
STARLINK-30781          
1 58123U 23162F   25062.49940331  .00003253  00000+0  25572-3 0  9997
2 58123  43.0022 350.0093 0001113 261.3872  98.6844 15.02544077 76464
STARLINK-30754          
1 58124U 23162G   25062.85178359  .00002519  00000+0  20147-3 0  9998
2 58124  43.0031 348.3368 0001073 276.2714  83.8007 15.02530676 70725
STARLINK-30766          
1 58125U 23162H   25062.49608655 -.00001128  00000+0 -68458-4 0  9991
2 58125  43.0020 349.9859 0001564 261.7911  98.2754 15.02519716 76467
STARLINK-30767          
1 58126U 23162J   25062.49275510  .00001660  00000+0  13792-3 0  9991
2 58126  43.0013 349.9616 0001195 272.6142  87.4563 15.02528847 76461
STARLINK-30790          
1 58127U 23162K   25062.48941640  .00000969  00000+0  86799-4 0  9994
2 58127  43.0051 349.9300 0001080 275.5019  84.5700 15.02535798 76466
